{
    "links": {
        "self": "http://www.neowsapp.com/rest/v1/neo/3751825?api_key=iIulBulltgU6a56xZRHN4H3l9WmuAYTsLGpBGhQ2"
    },
    "id": "3751825",
    "neo_reference_id": "3751825",
    "name": "(2016 GY220)",
    "designation": "2016 GY220",
    "nasa_jpl_url": "http://ssd.jpl.nasa.gov/sbdb.cgi?sstr=3751825",
    "absolute_magnitude_h": 24.6,
    "estimated_diameter": {
        "kilometers": {
            "estimated_diameter_min": 0.0319561887,
            "estimated_diameter_max": 0.0714562102
        },
        "meters": {
            "estimated_diameter_min": 31.9561886721,
            "estimated_diameter_max": 71.4562101727
        },
        "miles": {
            "estimated_diameter_min": 0.0198566489,
            "estimated_diameter_max": 0.0444008168
        },
        "feet": {
            "estimated_diameter_min": 104.8431420431,
            "estimated_diameter_max": 234.436392583
        }
    },
    "is_potentially_hazardous_asteroid": false,
    "close_approach_data": [
        {
            "close_approach_date": "2016-04-10",
            "close_approach_date_full": "2016-Apr-10 04:31",
            "epoch_date_close_approach": 1460262660000,
            "relative_velocity": {
                "kilometers_per_second": "8.1096072882",
                "kilometers_per_hour": "29194.5862376474",
                "miles_per_hour": "18140.3805430537"
            },
            "miss_distance": {
                "astronomical": "0.0756258695",
                "lunar": "29.4184632355",
                "kilometers": "11313468.994097965",
                "miles": "7029863.653823317"
            },
            "orbiting_body": "Earth"
        },
        {
            "close_approach_date": "2130-04-29",
            "close_approach_date_full": "2130-Apr-29 16:06",
            "epoch_date_close_approach": 5059382760000,
            "relative_velocity": {
                "kilometers_per_second": "12.0522848315",
                "kilometers_per_hour": "43388.2253933802",
                "miles_per_hour": "26959.75593957"
            },
            "miss_distance": {
                "astronomical": "0.240100443",
                "lunar": "93.399072327",
                "kilometers": "35918514.85885641",
                "miles": "22318730.200022058"
            },
            "orbiting_body": "Earth"
        }
    ],
    "orbital_data": {
        "orbit_id": "5",
        "orbit_determination_date": "2017-04-06 08:26:32",
        "first_observation_date": "2016-04-13",
        "last_observation_date": "2016-04-17",
        "data_arc_in_days": 4,
        "observations_used": 39,
        "orbit_uncertainty": "8",
        "minimum_orbit_intersection": ".0729223",
        "jupiter_tisserand_invariant": "4.113",
        "epoch_osculation": "2457493.5",
        "eccentricity": ".3703575708652724",
        "semi_major_axis": "1.688440314696951",
        "inclination": "12.9047203103062",
        "ascending_node_longitude": "26.40004911109171",
        "orbital_period": "801.3587746277768",
        "perihelion_distance": "1.063113661194792",
        "perihelion_argument": "160.4821662957102",
        "aphelion_distance": "2.31376696819911",
        "perihelion_time": "2457474.780823791554",
        "mean_anomaly": "8.409346285838966",
        "mean_motion": ".4492369852282661",
        "equinox": "J2000",
        "orbit_class": {
            "orbit_class_type": "AMO",
            "orbit_class_description": "Near-Earth asteroid orbits similar to that of 1221 Amor",
            "orbit_class_range": "1.017 AU < q (perihelion) < 1.3 AU"
        }
    },
    "is_sentry_object": false
}